GLOBAL-31               
1 63027U 25033B   26192.48693887  .00006139  00000+0  16986-3 0  9995
2 63027  58.9965 217.9572 0011603  54.9328 305.2834 15.38266572 78068
GLOBAL-32               
1 64231U 25118B   26192.81787301  .00008527  00000+0  22475-3 0  9992
2 64231  58.9939  32.8486 0016207  59.1924 301.0745 15.39231152 62031
GLOBAL-33               
1 66554U 25267A   26190.32970330  .00009691  00000+0  26648-3 0  9996
2 66554  42.0200 287.4239 0008399  42.3015 317.8471 15.37229901 35452
GLOBAL-34               
1 68098U 26043A   26192.91663324  .00005880  00000+0  18782-3 0  9999
2 68098  42.0218  77.7416 0001392 102.0975 258.0019 15.33066315 19627
