{"fetched_at":"2026-07-12T07:15:40.156Z","source":"https://celestrak.org/NORAD/elements/gp.php?NAME=GLOBAL&FORMAT=JSON","constellation":"blacksky-gen3","records":[{"OBJECT_NAME":"GLOBAL-31","OBJECT_ID":"2025-033B","EPOCH":"2026-07-11T11:41:11.518368","CLASSIFICATION_TYPE":"U","MEAN_MOTION":15.38266572,"ECCENTRICITY":0.00116034,"INCLINATION":58.9965,"RA_OF_ASC_NODE":217.9572,"ARG_OF_PERICENTER":54.9328,"MEAN_ANOMALY":305.2834,"EPHEMERIS_TYPE":0,"NORAD_CAT_ID":63027,"ELEMENT_SET_NO":999,"REV_AT_EPOCH":7806,"BSTAR":0.00016985917,"MEAN_MOTION_DOT":0.00006139,"MEAN_MOTION_DDOT":0},{"OBJECT_NAME":"GLOBAL-32","OBJECT_ID":"2025-118B","EPOCH":"2026-07-11T19:37:44.228064","CLASSIFICATION_TYPE":"U","MEAN_MOTION":15.39231152,"ECCENTRICITY":0.00162071,"INCLINATION":58.9939,"RA_OF_ASC_NODE":32.8486,"ARG_OF_PERICENTER":59.1924,"MEAN_ANOMALY":301.0745,"EPHEMERIS_TYPE":0,"NORAD_CAT_ID":64231,"ELEMENT_SET_NO":999,"REV_AT_EPOCH":6203,"BSTAR":0.00022475167,"MEAN_MOTION_DOT":0.00008527,"MEAN_MOTION_DDOT":0},{"OBJECT_NAME":"GLOBAL-33","OBJECT_ID":"2025-267A","EPOCH":"2026-07-09T07:54:46.365120","CLASSIFICATION_TYPE":"U","MEAN_MOTION":15.37229901,"ECCENTRICITY":0.00083993,"INCLINATION":42.02,"RA_OF_ASC_NODE":287.4239,"ARG_OF_PERICENTER":42.3015,"MEAN_ANOMALY":317.8471,"EPHEMERIS_TYPE":0,"NORAD_CAT_ID":66554,"ELEMENT_SET_NO":999,"REV_AT_EPOCH":3545,"BSTAR":0.0002664807,"MEAN_MOTION_DOT":0.00009691,"MEAN_MOTION_DDOT":0},{"OBJECT_NAME":"GLOBAL-34","OBJECT_ID":"2026-043A","EPOCH":"2026-07-11T21:59:57.111936","CLASSIFICATION_TYPE":"U","MEAN_MOTION":15.33066315,"ECCENTRICITY":0.00013927,"INCLINATION":42.0218,"RA_OF_ASC_NODE":77.7416,"ARG_OF_PERICENTER":102.0975,"MEAN_ANOMALY":258.0019,"EPHEMERIS_TYPE":0,"NORAD_CAT_ID":68098,"ELEMENT_SET_NO":999,"REV_AT_EPOCH":1962,"BSTAR":0.00018782438,"MEAN_MOTION_DOT":0.0000588,"MEAN_MOTION_DDOT":0}]}
